STARLINK-2021_new
1 17604C 21009BJ  21326.10450270 -.00014323  00000-0 -95959-3 0  3265
2 17604  53.0518 213.2753 0002129  67.7434  29.0970 15.06413738    19
STARLINK-2021_old
1 27604C 21009BJ  21325.16580196  .00009474  00000-0  63472-3 0  3254
2 27604  53.0520 217.4894 0002089  67.7062 335.7013 15.06391440    16
